GOES-16
1 41866U 16071A   25279.54517560 -.00000089  00000-0  00000-0 0  9996
2 41866   0.0935  74.1820 0002604 148.3506 244.5105  1.00271326 32564
FENGYUN-4A
1 41882U 16077A   25279.94728894 -.00000353  00000-0  00000-0 0  9992
2 41882   1.6736  82.9740 0005751 158.9889 238.7136  1.00274596 32395
FOX-1B (AO-91)
1 43017U 17073E   25279.61879311  .00009477  00000-0  46173-3 0  9995
2 43017  97.5044 147.4145 0168140 120.0422 241.7605 15.06889672427126
CANX-2
1 32790U 08021H   25279.67246534  .00006705  00000-0  50468-3 0  9998
2 32790  97.8334 250.4817 0010966 173.4185 186.7185 15.02813685946694
AIST-2 (RS-43)
1 39133U 13015D   25279.97840926  .00008825  00000-0  38471-3 0  9998
2 39133  64.8729   3.0369 0031413 265.4327  94.3213 15.22299204685309
NANOSATC-BR1
1 40024U 14033Q   25279.97866335  .00020342  00000-0  90033-3 0  9992
2 40024  98.0935 286.4845 0004196  16.1147 344.0220 15.21697156615340
QB50P1
1 40025U 14033R   25279.91343744  .00012817  00000-0  73584-3 0  9991
2 40025  98.0938 269.3717 0010543  23.6036 336.5675 15.12636059614664
QB50P2
1 40032U 14033Y   25279.92810964  .00011009  00000-0  67688-3 0  9993
2 40032  98.0567 257.2283 0006811 332.5384  27.5483 15.10220286614376
PERSEUS-M2
1 40037U 14033AD  25279.99268603  .00003817  00000-0  36078-3 0  9999
2 40037  97.9640 221.0885 0013820  62.9811 297.2817 14.94248064612959
PERSEUS-M1
1 40039U 14033AF  25279.77809149  .00004002  00000-0  37774-3 0  9994
2 40039  97.9352 215.4135 0013611  62.4309 297.8292 14.94269379612776
POLYITAN-1
1 40042U 14033AJ  25279.97282628  .00022616  00000-0  98070-3 0  9994
2 40042  98.1090 279.1538 0007066 322.9317  37.1428 15.22358645614928
TIGRISAT
1 40043U 14033AK  25279.87601616  .00003865  00000-0  46476-3 0  9994
2 40043  97.7508  71.4718 0050725 184.0577 176.0233 14.83593913608044
UKUBE-1
1 40074U 14037F   25279.86731444  .00013597  00000-0  89377-3 0  9994
2 40074  98.4073 252.8519 0001283  51.6750 308.4591 15.07736604610307
DEORBITSAIL
1 40719U 15032E   25279.86409157  .00009970  00000-0  83283-3 0  9999
2 40719  97.6251 136.7755 0010769 353.1158   6.9916 14.98683395553231
HORYU-IV
1 41340U 16012D   25279.70652692  .00040559  00000-0  87008-3 0  9993
2 41340  30.9962  47.6340 0003635 221.5442 138.4930 15.43473080531163
D-SAT
1 42794U 17036AF  25279.91162083  .00012408  00000-0  65734-3 0  9991
2 42794  97.5283 255.8125 0088286 318.6395  40.8172 15.12170519452518
CORVUS-BC2
1 42846U 17042X   25279.45520424  .00004854  00000-0  35597-3 0  9992
2 42846  97.3838  86.4679 0011898 257.6481 102.3414 15.03895906448898
CORVUS-BC1
1 42847U 17042Y   25279.42013093  .00005742  00000-0  41765-3 0  9990
2 42847  97.3859  87.0609 0011794 233.9428 126.0707 15.04128745448917
APRIZESAT-5 
1 37792U 11044E   25279.93970554  .00001877  00000-0  24792-3 0  9995
2 37792  98.2280 201.1720 0054462  97.7175 263.0226 14.80267855761314
APRIZESAT-6
1 37793U 11044F   25279.93726509  .00001404  00000-0  20728-3 0  9996
2 37793  98.2455 180.1710 0043598 174.1087 316.8332 14.76319080759779
APRIZESAT-7
1 39416U 13066A   25279.83445055  .00002914  00000-0  30030-3 0  9993
2 39416  97.7347 232.4037 0035784 333.7198  26.2204 14.90556911643475
APRIZESAT-8
1 39425U 13066K   25279.84171895  .00002145  00000-0  24189-3 0  9996
2 39425  97.7879 226.4821 0047834  41.0396 319.4403 14.86804522642013
BUGSAT-1 (TITA)
1 40014U 14033E   25279.97797628  .00006240  00000-0  36241-3 0  9991
2 40014  98.0636 353.1470 0029307 325.7648  34.1690 15.12155280617526
SAUDISAT-4
1 40016U 14033G   25280.00683521  .00001718  00000-0  23564-3 0  9994
2 40016  97.7243  70.5444 0045353 175.7545 184.4061 14.78975354608644
TABLETSAT-AURORA
1 40017U 14033H   25280.02877251  .00009394  00000-0  53321-3 0  9994
2 40017  98.0602 334.4784 0012542   6.4548 353.6841 15.13119786616862
APRIZESAT-9
1 40018U 14033J   25279.86441769  .00001221  00000-0  18876-3 0  9993
2 40018  97.8722  54.8964 0065551 295.3329  64.1100 14.73684307606244
APRIZESAT-10
1 40019U 14033K   25279.82760929  .00000944  00000-0  15675-3 0  9997
2 40019  97.9340  48.0314 0079492   3.9140 356.2671 14.70424648605018
AISAT
1 40054U 14034B   25279.91424775  .00013806  00000-0  10538-2 0  9996
2 40054  98.2538 169.8828 0011006 357.1005   3.0153 15.02073752609099
COSMOS-2407 [+]
1 28380U 04028A   25279.92307041  .00000087  00000-0  73661-4 0  9998
2 28380  82.9564 262.3703 0037908 239.7474 148.4939 13.76303534 65041
COSMOS-2414 [+]
1 28521U 05002A   25279.84537651  .00000095  00000-0  66495-4 0  9997
2 28521  82.9487 235.2354 0039544 333.8878  26.0290 13.87890686 48677
COSMOS-2463 [+]
1 36519U 10017A   25279.94270852  .00000070  00000-0  60003-4 0  9995
2 36519  82.9573  75.7888 0037399 112.1192  47.2026 13.71641082773215
NOAA-15
1 25338U 98030A   25280.01008442  .00000256  00000-0  12279-3 0  9994
2 25338  98.5298 302.2387 0010480  16.0073 344.1437 14.27031091425183
NOAA-18
1 28654U 05018A   25279.95639059  .00000162  00000-0  10914-3 0  9997
2 28654  98.8350 358.0492 0014859 147.4508 212.7584 14.13648415 50536
NOAA-19
1 33591U 09005A   25279.91126044  .00000111  00000-0  82864-4 0  9992
2 33591  98.9855 345.2191 0014186  30.7404 329.4596 14.13415751858708
SARAL
1 39086U 13009A   25279.96401824  .00000179  00000-0  81846-4 0  9996
2 39086  98.5543 104.7574 0001416 352.6633   7.4530 14.32722943659343
LAPAN-A3
1 41603U 16040E   25279.97038267  .00005036  00000-0  17143-3 0  9995
2 41603  97.1421 279.9905 0010214 192.1225 167.9772 15.30799201516043
BIROS
1 41604U 16040F   25279.95902786  .00076426  00000-0  57274-3 0  9990
2 41604  97.0788 309.6827 0006015  91.9627 268.2327 15.72389310518189
METOP-A
1 29499U 06044A   25279.96105775  .00004363  00000-0  51353-3 0  9998
2 29499  98.3307  14.0983 0178213 155.8737 317.2312 14.74600641988117
METEOR M1
1 35865U 09049A   25279.89629009  .00000210  00000-0  11260-3 0  9993
2 35865  98.7012 239.7242 0001897 352.6371   7.4779 14.23062539833224
METOP-B
1 38771U 12049A   25279.98963510  .00000195  00000-0  10943-3 0  9993
2 38771  98.6906 331.0442 0002395  23.7163 336.4124 14.21372452677299
METEOR M2
1 40069U 14037A   25279.94368657  .00000267  00000-0  14153-3 0  9999
2 40069  98.4820 260.1127 0006791  58.4331 301.7509 14.21346658583346
CSSWE
1 38761U 12048D   25280.00771633  .00026417  00000-0  79744-3 0  9998
2 38761  64.6633 221.6739 0102770 244.0056 115.0461 15.29080607 77485
MCUBED-2
1 39469U 13072H   25279.37252771  .00015683  00000-0  68294-3 0  9998
2 39469 120.4947  97.6794 0172766  99.4840 262.5799 15.10107538 79383
IPEX
1 39471U 13072K   25279.63404414  .00012448  00000-0  64532-3 0  9990
2 39471 120.4690  58.9474 0189481  89.5504 272.7269 15.02525146 77052
FOX-1A (AO-85)
1 40967U 15058D   25279.59232563  .00004567  00000-0  41424-3 0  9995
2 40967  64.7779 345.9924 0143222 154.9719 205.8428 14.89032648 75785
OOREOS
1 37224U 10062C   25279.46225944  .00003379  00000-0  33743-3 0  9993
2 37224  71.9698 294.4330 0015160 198.8209 161.2403 14.92114978 78777
STARS (KUKAI)
1 33498U 09002G   25279.80701420  .00006127  00000-0  59567-3 0  9996
2 33498  98.1271 212.6903 0007253 291.5973  68.4472 14.92938796900630
YUBELEINY-2 (RS-40)
1 38735U 12041C   25279.98175413  .00000016  00000-0  44648-4 0  9994
2 38735  82.4751 232.5482 0016117 260.8489  99.0768 12.42637499598394
AIST-1
1 39492U 13078C   25279.99192498  .00002567  00000-0  23208-3 0  9990
2 39492  82.4171 155.9794 0018522  49.2457 311.0368 14.94959929637404
VELOX-1
1 40057U 14034E   25279.95627769  .00007504  00000-0  70171-3 0  9999
2 40057  98.2735 165.8853 0008931  35.8114 324.3702 14.94402451608730
DX1
1 40071U 14037C   25279.95687846  .00002955  00000-0  32293-3 0  9998
2 40071  98.3521 222.0569 0008057  27.2298 332.9339 14.88687380608412
COSMOS-2491 (RS-46) [i]
1 39497U 13076E   25280.05805083  .00000048  00000-0  27289-3 0  9998
2 39497  82.4869 326.1295 0011798 283.5610  76.4155 12.43491312533795
COSMOS-2499 (RS-47) [i]
1 39765U 14028E   25279.89523154  .00000004  00000-0 -21878-4 0  9992
2 39765  82.4478  63.3484 0230898 236.1426 121.7515 12.82896250532541
TRANSIT 5B-5
1 00965U 64083D   25280.02036047  .00000074  00000-0  90677-4 0  9994
2 00965  90.0701 201.1110 0039807 300.0059  70.1631 13.56980356  9282
EUTELSAT 1-F4 (ECS 4)
1 18351U 87078B   25278.98728934 -.00000214  00000-0  00000-0 0  9990
2 18351  14.0112 343.8961 0006516  32.2073 314.7378  0.98690174124248
BISONSAT
1 40968U 15058E   25279.76160237  .00005423  00000-0  45049-3 0  9992
2 40968  64.7772 331.0124 0131989 153.5499 207.2433 14.93195858 78787
DTUSAT-2
1 40030U 14033W   25279.91426813  .00010426  00000-0  64267-3 0  9998
2 40030  98.0681 257.7252 0009682  30.3359 329.8428 15.10125400614397
ELEKTRO-L2
1 41105U 15074A   25279.63419816 -.00000109  00000-0  00000-0 0  9992
2 41105   6.0506  73.6305 0002844 177.3421 338.3774  1.00272568 35966
DOVE-3
1 39429U 13066P   25279.57819882  .00004118  00000-0  56354-3 0  9996
2 39429  97.6923 147.2092 0118939 125.9515 235.2798 14.74195337633618
FORTE
1 24920U 97047A   25279.85415896  .00000401  00000-0  18495-3 0  9990
2 24920  69.9528 226.1594 0025172 264.8533  94.9716 14.27779306462526
DMSP 5D-2 F15/USA-147
1 25991U 99067A   25280.03269837  .00000262  00000-0  15189-3 0  9999
2 25991  99.0309 310.0184 0009949   9.0995  53.5764 14.17432274334788
CASSIOPE-1
1 39265U 13055A   25279.95800750  .00054146 -15361-6  78463-3 0  9992
2 39265  80.9428   9.7949 0365055 184.6145 175.1689 15.04988648629309
D-STAR ONE PHOENIX
1 43188U 18014J   25279.72526528  .00007151  00000-0  40632-3 0  9992
2 43188  97.5506 181.5596 0009871 158.8963 201.2677 15.13167294420389
S-NET D
1 43186U 18014G   25279.98981522  .00007444  00000-0  42287-3 0  9990
2 43186  97.5495 181.6776 0009217 160.7470 199.4111 15.13166368420421
TEN-KOH
1 43677U 18084G   25280.00332396  .00003416  00000-0  27112-3 0  9991
2 43677  98.0748  96.9933 0007966 214.8706 145.1996 15.01206142378151
